[{"OBJECT_NAME":"GECAM-B","OBJECT_ID":"2020-094B","EPOCH":"2026-02-27T04:39:26.451360","MEAN_MOTION":15.01652363,"ECCENTRICITY":0.0010635,"INCLINATION":28.9982,"RA_OF_ASC_NODE":10.8844,"ARG_OF_PERICENTER":257.2071,"MEAN_ANOMALY":102.7339,"EPHEMERIS_TYPE":0,"CLASSIFICATION_TYPE":"U","NORAD_CAT_ID":47235,"ELEMENT_SET_NO":999,"REV_AT_EPOCH":28517,"BSTAR":0.00023073,"MEAN_MOTION_DOT":3.224e-5,"MEAN_MOTION_DDOT":0},{"OBJECT_NAME":"FENGYUN 1C DEB","OBJECT_ID":"1999-025CDM","EPOCH":"2026-03-09T06:24:55.905408","MEAN_MOTION":15.0430028,"ECCENTRICITY":0.00202824,"INCLINATION":99.0326,"RA_OF_ASC_NODE":346.4521,"ARG_OF_PERICENTER":26.5298,"MEAN_ANOMALY":133.8427,"EPHEMERIS_TYPE":0,"CLASSIFICATION_TYPE":"U","NORAD_CAT_ID":31714,"ELEMENT_SET_NO":999,"REV_AT_EPOCH":97342,"BSTAR":0.0098433176,"MEAN_MOTION_DOT":0.00140271,"MEAN_MOTION_DDOT":0}]
